{
  "links" : {
    "next" : "https://api.nasa.gov/neo/rest/v1/feed?start_date=2013-09-23&end_date=2013-09-23&detailed=true&api_key=t0TVs3DtDT2H8Oy2Zy8m2eVrNsAVKAexjcZXUckd",
    "prev" : "https://api.nasa.gov/neo/rest/v1/feed?start_date=2013-09-21&end_date=2013-09-21&detailed=true&api_key=t0TVs3DtDT2H8Oy2Zy8m2eVrNsAVKAexjcZXUckd",
    "self" : "https://api.nasa.gov/neo/rest/v1/feed?start_date=2013-09-22&end_date=2013-09-22&detailed=true&api_key=t0TVs3DtDT2H8Oy2Zy8m2eVrNsAVKAexjcZXUckd"
  },
  "element_count" : 5,
  "near_earth_objects" : {
    "2013-09-22" : [ {
      "links" : {
        "self" : "https://api.nasa.gov/neo/rest/v1/neo/3646758?api_key=t0TVs3DtDT2H8Oy2Zy8m2eVrNsAVKAexjcZXUckd"
      },
      "neo_reference_id" : "3646758",
      "name" : "(2013 QN11)",
      "nasa_jpl_url" : "http://ssd.jpl.nasa.gov/sbdb.cgi?sstr=3646758",
      "absolute_magnitude_h" : 22.9,
      "estimated_diameter" : {
        "kilometers" : {
          "estimated_diameter_min" : 0.0699125232,
          "estimated_diameter_max" : 0.1563291544
        },
        "meters" : {
          "estimated_diameter_min" : 69.9125232246,
          "estimated_diameter_max" : 156.3291544087
        },
        "miles" : {
          "estimated_diameter_min" : 0.0434416145,
          "estimated_diameter_max" : 0.097138403
        },
        "feet" : {
          "estimated_diameter_min" : 229.3718026961,
          "estimated_diameter_max" : 512.8909429502
        }
      },
      "is_potentially_hazardous_asteroid" : false,
      "close_approach_data" : [ {
        "close_approach_date" : "2013-09-22",
        "epoch_date_close_approach" : 1379833200000,
        "relative_velocity" : {
          "kilometers_per_second" : "13.0311034865",
          "kilometers_per_hour" : "46911.9725513914",
          "miles_per_hour" : "29149.2753889465"
        },
        "miss_distance" : {
          "astronomical" : "0.0343147095",
          "lunar" : "13.3484220505",
          "kilometers" : "5133407.5",
          "miles" : "3189751.75"
        },
        "orbiting_body" : "Earth"
      } ],
      "orbital_data" : {
        "orbit_id" : "18",
        "orbit_determination_date" : "2017-04-06 08:45:02",
        "orbit_uncertainty" : "4",
        "minimum_orbit_intersection" : ".004843",
        "jupiter_tisserand_invariant" : "4.406",
        "epoch_osculation" : "2458000.5",
        "eccentricity" : ".4588904177297119",
        "semi_major_axis" : "1.503884809588206",
        "inclination" : "7.785822851134914",
        "ascending_node_longitude" : "4.296093530242924",
        "orbital_period" : "673.6282405646893",
        "perihelion_distance" : ".8137664810989059",
        "perihelion_argument" : "64.16343796820226",
        "aphelion_distance" : "2.194003138077507",
        "perihelion_time" : "2457953.390123184999",
        "mean_anomaly" : "25.17643209136194",
        "mean_motion" : ".5344193997838023",
        "equinox" : "J2000"
      }
    }, {
      "links" : {
        "self" : "https://api.nasa.gov/neo/rest/v1/neo/2477524?api_key=t0TVs3DtDT2H8Oy2Zy8m2eVrNsAVKAexjcZXUckd"
      },
      "neo_reference_id" : "2477524",
      "name" : "477524 (2010 EH43)",
      "nasa_jpl_url" : "http://ssd.jpl.nasa.gov/sbdb.cgi?sstr=2477524",
      "absolute_magnitude_h" : 18.8,
      "estimated_diameter" : {
        "kilometers" : {
          "estimated_diameter_min" : 0.4619074603,
          "estimated_diameter_max" : 1.0328564805
        },
        "meters" : {
          "estimated_diameter_min" : 461.9074602816,
          "estimated_diameter_max" : 1032.8564805039
        },
        "miles" : {
          "estimated_diameter_min" : 0.2870159005,
          "estimated_diameter_max" : 0.6417870641
        },
        "feet" : {
          "estimated_diameter_min" : 1515.4444719902,
          "estimated_diameter_max" : 3388.6368554964
        }
      },
      "is_potentially_hazardous_asteroid" : false,
      "close_approach_data" : [ {
        "close_approach_date" : "2013-09-22",
        "epoch_date_close_approach" : 1379833200000,
        "relative_velocity" : {
          "kilometers_per_second" : "18.7414757182",
          "kilometers_per_hour" : "67469.3125854469",
          "miles_per_hour" : "41922.8070339962"
        },
        "miss_distance" : {
          "astronomical" : "0.4053943249",
          "lunar" : "157.6983947754",
          "kilometers" : "60646128",
          "miles" : "37683756"
        },
        "orbiting_body" : "Earth"
      } ],
      "orbital_data" : {
        "orbit_id" : "41",
        "orbit_determination_date" : "2017-04-06 09:18:59",
        "orbit_uncertainty" : "1",
        "minimum_orbit_intersection" : ".227139",
        "jupiter_tisserand_invariant" : "4.857",
        "epoch_osculation" : "2458000.5",
        "eccentricity" : ".04405957066649944",
        "semi_major_axis" : "1.27778450890344",
        "inclination" : "37.54464724051859",
        "ascending_node_longitude" : "5.428741371266376",
        "orbital_period" : "527.5757863443321",
        "perihelion_distance" : "1.22148587203685",
        "perihelion_argument" : "195.9706790465547",
        "aphelion_distance" : "1.334083145770029",
        "perihelion_time" : "2457928.727542692559",
        "mean_anomaly" : "48.9751146649766",
        "mean_motion" : ".6823664188504651",
        "equinox" : "J2000"
      }
    } ]
  }
}